<?xml version="1.0" encoding="utf-8" ?>
<kml xmlns="http://www.opengis.net/kml/2.2">
<Document id="root_doc">
<Schema name="jambaghkmz" id="jambaghkmz">
	<SimpleField name="id" type="string"></SimpleField>
	<SimpleField name="timestamp" type="string"></SimpleField>
	<SimpleField name="begin" type="string"></SimpleField>
	<SimpleField name="end" type="string"></SimpleField>
	<SimpleField name="altitudeMode" type="string"></SimpleField>
	<SimpleField name="tessellate" type="int"></SimpleField>
	<SimpleField name="extrude" type="int"></SimpleField>
	<SimpleField name="visibility" type="int"></SimpleField>
	<SimpleField name="drawOrder" type="int"></SimpleField>
	<SimpleField name="icon" type="string"></SimpleField>
	<SimpleField name="snippet" type="string"></SimpleField>
</Schema>
<Folder><name>jambaghkmz</name>
  <Placemark id="jambaghkmz.1">
	<name>JAMBAGH</name>
	<description>&lt;html xmlns:fo=&quot;http://www.w3.org/1999/XSL/Format&quot; xmlns:msxsl=&quot;urn:schemas-microsoft-com:xslt&quot;&gt;

&lt;head&gt;

&lt;META http-equiv=&quot;Content-Type&quot; content=&quot;text/html&quot;&gt;

&lt;meta http-equiv=&quot;content-type&quot; content=&quot;text/html; charset=UTF-8&quot;&gt;

&lt;/head&gt;

&lt;body style=&quot;margin:0px 0px 0px 0px;overflow:auto;background:#FFFFFF;&quot;&gt;

&lt;table style=&quot;font-family:Arial,Verdana,Times;font-size:12px;text-align:left;width:100%;border-collapse:collapse;padding:3px 3px 3px 3px&quot;&gt;

&lt;tr style=&quot;text-align:center;font-weight:bold;background:#9CBCE2&quot;&gt;

&lt;td&gt;JAMBAGH&lt;/td&gt;

&lt;/tr&gt;

&lt;tr&gt;

&lt;td&gt;

&lt;table style=&quot;font-family:Arial,Verdana,Times;font-size:12px;text-align:left;width:100%;border-spacing:0px; padding:3px 3px 3px 3px&quot;&gt;

&lt;tr&gt;

&lt;td&gt;FID&lt;/td&gt;

&lt;td&gt;65&lt;/td&gt;

&lt;/tr&gt;

&lt;tr bgcolor=&quot;#D4E4F3&quot;&gt;

&lt;td&gt;wardname&lt;/td&gt;

&lt;td&gt;JAMBAGH&lt;/td&gt;

&lt;/tr&gt;

&lt;tr&gt;

&lt;td&gt;circle&lt;/td&gt;

&lt;td&gt;8&lt;/td&gt;

&lt;/tr&gt;

&lt;tr bgcolor=&quot;#D4E4F3&quot;&gt;

&lt;td&gt;AREA_IN_SQ&lt;/td&gt;

&lt;td&gt;2.08372582207509&lt;/td&gt;

&lt;/tr&gt;

&lt;tr&gt;

&lt;td&gt;WARDNO&lt;/td&gt;

&lt;td&gt;77&lt;/td&gt;

&lt;/tr&gt;

&lt;/table&gt;

&lt;/td&gt;

&lt;/tr&gt;

&lt;/table&gt;

&lt;/body&gt;

&lt;/html&gt;</description>
	<Style><LineStyle><color>ff0000ff</color></LineStyle><PolyStyle><fill>0</fill></PolyStyle></Style>
	<ExtendedData><SchemaData schemaUrl="#jambaghkmz">
		<SimpleData name="id">ID_00065</SimpleData>
		<SimpleData name="tessellate">-1</SimpleData>
		<SimpleData name="extrude">0</SimpleData>
		<SimpleData name="visibility">-1</SimpleData>
		<SimpleData name="snippet"></SimpleData>
	</SchemaData></ExtendedData>
      <MultiGeometry><Polygon><outerBoundaryIs><LinearRing><coordinates>78.4705930961418,17.3908915739966,0 78.4700958683582,17.3912061629758,0 78.4700824505608,17.3917159453605,0 78.4700946054585,17.3921661036647,0 78.4695845276501,17.392181194254,0 78.4693461965081,17.3921887020886,0 78.4689225316302,17.3922102409243,0 78.4688290947606,17.3921637769019,0 78.4687836910051,17.3920455837674,0 78.4687690105213,17.3917468821078,0 78.468274730704,17.3914327942857,0 78.4678735134613,17.3911923027006,0 78.4677725497124,17.391010054202,0 78.4676058669473,17.3908178916958,0 78.4669654849659,17.3908636972149,0 78.4662865973005,17.3909723115259,0 78.4660313725067,17.3910593924643,0 78.4656990168641,17.3912811364943,0 78.4655532772455,17.3913852996561,0 78.4655374778478,17.3913965927824,0 78.4652562895608,17.3913205053416,0 78.464815445823,17.3912242154462,0 78.4643930382582,17.3911553047356,0 78.464234260744,17.3910717904183,0 78.4639746484417,17.3907969830976,0 78.4636125709859,17.3904484542512,0 78.4634647052837,17.3902565379614,0 78.4631600715715,17.3898364021753,0 78.4629383371726,17.3895440050757,0 78.4628092868361,17.3893523370576,0 78.462696285041,17.3893598868238,0 78.4624606275577,17.3893929469776,0 78.4619992205656,17.3894230164581,0 78.4618485953845,17.3894300673308,0 78.4618504781267,17.389294407642,0 78.4618254001477,17.3890679341784,0 78.4617542934689,17.3887684846631,0 78.4616529605346,17.3886133666935,0 78.4614948128781,17.3884846325547,0 78.4614397578634,17.3883843991691,0 78.461442644915,17.3881763887546,0 78.4615069950441,17.3876073651546,0 78.461597928868,17.3871562873861,0 78.4617239750477,17.3868865873139,0 78.4619361821706,17.3865094819698,0 78.4621855103507,17.3861690496982,0 78.4624919015007,17.3857841451419,0 78.4627125086165,17.3854795139688,0 78.4628464508348,17.385318466065,0 78.4630841113516,17.3851406997307,0 78.4633018299754,17.3850440800659,0 78.4632941805722,17.3849173380747,0 78.4632406306859,17.3847085791267,0 78.46328304246,17.3846688920382,0 78.4634217276935,17.3845391091935,0 78.4634706404387,17.3844040718106,0 78.4633962712484,17.3843397678659,0 78.4633705657041,17.3834800905841,0 78.463361036287,17.3828105838267,0 78.4633836307969,17.3825395154085,0 78.4636460663181,17.3825769078723,0 78.4641319094626,17.3826172591445,0 78.4646305431683,17.3826577794401,0 78.4648218968692,17.3827066841459,0 78.4651847835439,17.3828007970402,0 78.4654444790104,17.382867552932,0 78.4655530058945,17.3828961242444,0 78.4656488168373,17.3829301828388,0 78.465857175739,17.3830313103503,0 78.4660540005177,17.3830101687974,0 78.4661418939962,17.3830000255978,0 78.4663917492644,17.3829603608091,0 78.4670787735126,17.3828563728191,0 78.4671751771798,17.382843179503,0 78.4673301941566,17.382614927225,0 78.4675074145539,17.3823405086519,0 78.4675954859309,17.3821688434182,0 78.4675984841741,17.3821614862526,0 78.467600881453,17.3821543276352,0 78.4676028103094,17.3821470395918,0 78.4676042668896,17.3821396518419,0 78.4676052439339,17.3821321913053,0 78.4676057370297,17.3821246865916,0 78.467605742331,17.3821171668693,0 78.467605298787,17.3821101811397,0 78.4675960554371,17.3820140982131,0 78.467565652848,17.3817771288167,0 78.4675650638741,17.3817688209653,0 78.4675650225996,17.3817646859631,0 78.467565443426,17.3817564251011,0 78.4675665306082,17.3817482201017,0 78.4675682765525,17.3817401221361,0 78.4675706720116,17.381732177393,0 78.4675721081468,17.3817282777809,0 78.4675754487601,17.3817206553902,0 78.4675780223612,17.3817157443067,0 78.4675815892257,17.3817097455018,0 78.4675863977165,17.3817028842855,0 78.4675917469779,17.3816964020328,0 78.4675976060333,17.3816903385927,0 78.4676039347902,17.3816847287375,0 78.4676072651853,17.3816821045254,0 78.4676142306886,17.3816772419927,0 78.4676215683968,17.3816729089849,0 78.4676295410576,17.3816689947235,0 78.4678117993031,17.381587662464,0 78.4679472906763,17.3815311814909,0 78.4680036631488,17.3815063994897,0 78.4680654986341,17.3814809276734,0 78.468211926656,17.3814269606188,0 78.4682129364693,17.381433683964,0 78.4682141384212,17.3814403794265,0 78.4682155314699,17.3814470392756,0 78.4682171145204,17.3814536596384,0 78.4682188864627,17.3814602377447,0 78.4682208456884,17.3814667653049,0 78.4682252448048,17.3814802283933,0 78.4682856623051,17.3814265771937,0 78.4683250375303,17.3813955260855,0 78.468364712384,17.3813622246489,0 78.4683701059392,17.3813578619917,0 78.4683756599295,17.3813536893501,0 78.4683813679649,17.3813497121556,0 78.4683872219484,17.3813459347157,0 78.4683932160187,17.3813423657764,0 78.4683993386878,17.381339005743,0 78.4684055864055,17.3813358622883,0 78.4684119453652,17.3813329374423,0 78.4684317454041,17.3813243462736,0 78.4684436268778,17.3813198707471,0 78.4684557442618,17.381316024999,0 78.4684680617929,17.3813128212548,0 78.4685207158155,17.3813013793837,0 78.4685473109604,17.3812952602471,0 78.4686943941042,17.3812647298406,0 78.4687951112103,17.3812456217861,0 78.4688947069798,17.3812255171069,0 78.4689953216642,17.3812054633315,0 78.4691039037692,17.3811827067886,0 78.4692621980322,17.3811528092592,0 78.4693411290879,17.3811366220464,0 78.4694176978619,17.3811220057259,0 78.4695580295478,17.3810973372034,0 78.469688121905,17.3810717874135,0 78.4697548363452,17.3810589787801,0 78.4697367424085,17.3809833165883,0 78.4697295760804,17.3809554365033,0 78.4697252519646,17.3809371783847,0 78.4697222358683,17.3809188651814,0 78.4697109774485,17.3808584813823,0 78.4697092347798,17.3808483920989,0 78.4697077578975,17.3808382631859,0 78.4697065490066,17.3808281012863,0 78.4697038148491,17.3807951688117,0 78.4697042624727,17.3807834060886,0 78.469705323539,17.3807687410153,0 78.4697123722539,17.3806910452696,0 78.4697180072938,17.380653077783,0 78.4697920827362,17.3806557730242,0 78.4698410013162,17.380655357781,0 78.4698871921544,17.3806528633125,0 78.4699692851155,17.380648876793,0 78.4700109825426,17.3806480811241,0 78.4700219621902,17.3806476436546,0 78.4700274796346,17.3806472532751,0 78.4700384796212,17.3806461297379,0 78.4700494203448,17.3806445561683,0 78.4701255915085,17.3806304058365,0 78.470198471191,17.3806152165238,0 78.4702792783972,17.3805988465046,0 78.4703541448276,17.3805830902504,0 78.4704985696065,17.3805491394023,0 78.4706207761245,17.3805264245031,0 78.4707569978795,17.3805053413353,0 78.4708681728926,17.3804867097494,0 78.4709357028013,17.380478504157,0 78.4710150553112,17.3804656710543,0 78.4711258859642,17.3804407615589,0 78.4711794305613,17.3804285760862,0 78.47128293458,17.3804001382011,0 78.4713396189097,17.3803841143037,0 78.4713671581884,17.3803609946781,0 78.4715979634332,17.3803165511908,0 78.4718802163304,17.3802614778764,0 78.4720137224699,17.380333343013,0 78.4720618767398,17.380358854023,0 78.4723578329878,17.3802802177104,0 78.4730380407951,17.3801048811691,0 78.4732736254619,17.3800548456765,0 78.4743082661475,17.3798344281684,0 78.4743953648442,17.3798287903158,0 78.4749011957848,17.379794751482,0 78.4749987127291,17.3797903835037,0 78.4753827367798,17.3797739609142,0 78.4760572315592,17.3797568386329,0 78.4763230159128,17.3796913664427,0 78.4763699247003,17.3796580625792,0 78.4765406258203,17.3794952261527,0 78.4766512484875,17.3794571079465,0 78.4770100224563,17.3796834530672,0 78.4771283618709,17.3797573774146,0 78.4773195075912,17.3799238478824,0 78.4774908772428,17.3799577641469,0 78.4775849802795,17.3799770948543,0 78.4776351937176,17.3799811488254,0 78.4777256216825,17.3799472869923,0 78.4780890947412,17.3797903785599,0 78.478122374618,17.3797648083588,0 78.4783990876346,17.379557006702,0 78.4784881007868,17.3795084259531,0 78.4785713785853,17.3794812545234,0 78.4788457971874,17.3793864926059,0 78.4789059850263,17.3793816308594,0 78.4792563222841,17.3793885023708,0 78.4792951453849,17.379428807354,0 78.4793135008248,17.3794212304054,0 78.479339193333,17.379450763744,0 78.4797145307302,17.3798419503002,0 78.4799119913969,17.3800426934535,0 78.4800621668178,17.3801919580664,0 78.4801120662913,17.3802404286611,0 78.4801856139455,17.3803131613807,0 78.480295090611,17.3804306348248,0 78.4804123961775,17.3805791365005,0 78.4805746956756,17.3807510384298,0 78.4807256749107,17.3809317952,0 78.4808669905047,17.3811032226496,0 78.4809725125895,17.3812281878186,0 78.4811284928103,17.3814117401149,0 78.4812553685583,17.3815471085954,0 78.4814230061623,17.3817159037141,0 78.4815727494096,17.3818625754643,0 78.4817140893045,17.3820017893915,0 78.4817587751863,17.3820565345933,0 78.4819255180626,17.3822270088437,0 78.4821596642576,17.3824558829397,0 78.4822514072884,17.3825581825786,0 78.4824085882642,17.3827157426133,0 78.4824655282986,17.3827709763273,0 78.4826845595605,17.3830043903036,0 78.4832112801919,17.3835496682548,0 78.4835439605248,17.3839595386736,0 78.4839122173187,17.3843844327544,0 78.4840976841355,17.3846061544995,0 78.4842411692091,17.3847915822291,0 78.4843828100609,17.3849789695575,0 78.4841232767534,17.3850093404382,0 78.4836657354271,17.385088883387,0 78.4833029993888,17.3851476091254,0 78.4829522469907,17.3852094064853,0 78.4826668502869,17.3852583715223,0 78.4823363884494,17.3853095256421,0 78.4820555814383,17.3853604842705,0 78.4816060702968,17.3854630695903,0 78.4815105012993,17.3854777743254,0 78.4813675230982,17.3855012489759,0 78.4812622217893,17.3855191091595,0 78.4811197176371,17.3855428459469,0 78.481027900362,17.3855585713318,0 78.4808718125684,17.3855848354956,0 78.4807678789245,17.385601720938,0 78.480526070226,17.3856435196265,0 78.4803874409408,17.3856672865922,0 78.4801856919175,17.385702577913,0 78.4800390991469,17.3857267352585,0 78.4799079377857,17.385749646336,0 78.4798586522333,17.3857590024835,0 78.4797576960205,17.3857807430551,0 78.4796224741424,17.3858079427907,0 78.4795863040537,17.3858160030891,0 78.4795629306132,17.3858221946723,0 78.4795568374319,17.3858236535527,0 78.4795506771323,17.3858248150031,0 78.479544462917,17.3858256791903,0 78.4795382126494,17.3858262413785,0 78.4795319389278,17.3858265039318,0 78.4795256613377,17.3858264621362,0 78.4795193918883,17.385826119451,0 78.4795027036222,17.3858241418745,0 78.4795765538406,17.3859574328567,0 78.4796128724328,17.3860208915202,0 78.4796229716101,17.3860360118947,0 78.47963355414,17.3860506764106,0 78.4796446745791,17.3860649678958,0 78.4796563199361,17.3860788707506,0 78.4796684709505,17.3860923659886,0 78.4796811169272,17.3861054380391,0 78.4796942391795,17.386118067923,0 78.4797009745783,17.3861242136212,0 78.4797990535571,17.386209136877,0 78.479976329846,17.3863230882825,0 78.479982340315,17.3863272501772,0 78.4799940445543,17.3863359768028,0 78.4800053076283,17.3863452232156,0 78.4800161045737,17.3863549676009,0 78.4800264115452,17.3863651903633,0 78.4800313737649,17.3863704751837,0 78.4800409039043,17.3863813706061,0 78.4800498868922,17.3863926852494,0 78.4800543082772,17.3863986826449,0 78.480102830239,17.386470494348,0 78.4801648423237,17.3866037492674,0 78.4802358357648,17.3867595966354,0 78.480312135032,17.3869043687521,0 78.4803165526911,17.3869123164833,0 78.4803257482485,17.3869280257553,0 78.480330522189,17.3869357828358,0 78.4803398768831,17.386950269199,0 78.4803798157004,17.387014577229,0 78.4803880491994,17.3870275896768,0 78.4803920855269,17.3870344973109,0 78.4803959518415,17.3870414937577,0 78.4803996459076,17.3870485745788,0 78.4804031654514,17.3870557380917,0 78.4804065076784,17.3870629787483,0 78.4804096732154,17.3870702926978,0 78.4804126592299,17.3870776771481,0 78.4804154623833,17.3870851243393,0 78.4804180838312,17.3870926337346,0 78.4804205219119,17.387100200903,0 78.4804227726599,17.3871078219356,0 78.4804248350102,17.3871154907549,0 78.4804267124748,17.3871232024439,0 78.480435404811,17.3871651771427,0 78.4804625684838,17.387291660714,0 78.4804943178588,17.3874339899486,0 78.4805483389259,17.3875945435965,0 78.4805842749654,17.3876866935834,0 78.4805888280961,17.3876972444563,0 78.480591247858,17.3877024607854,0 78.4805937634696,17.3877076375309,0 78.4805990738498,17.3877178561778,0 78.4806047553316,17.3877278920787,0 78.480610798957,17.3877377285824,0 78.4806171973691,17.3877473578782,0 78.4806205286231,17.3877520890223,0 78.4806275187879,17.3877614804745,0 78.4806633719433,17.3878079094334,0 78.4806675654417,17.3878135296328,0 78.4806716966297,17.3878194654734,0 78.4806756228558,17.3878255266205,0 78.4806793418919,17.3878317080847,0 78.4806828509659,17.3878380026644,0 78.4806861427209,17.387844402549,0 78.4806892160767,17.3878509027634,0 78.480692066539,17.3878574960845,0 78.4806946930655,17.3878641747814,0 78.4806970900062,17.3878709321675,0 78.4806992574669,17.3878777605263,0 78.4807011915273,17.387884652642,0 78.480702889385,17.3878916035177,0 78.4807043529132,17.3878986021517,0 78.4807055752762,17.3879056445988,0 78.4807065292424,17.3879124973289,0 78.4807250162905,17.3879657665779,0 78.4807191296071,17.388003249057,0 78.4806970421069,17.3881377651901,0 78.4806760752618,17.3883018820242,0 78.4806375761481,17.3884694070468,0 78.4806109906988,17.3885815322875,0 78.480563579269,17.3887860120179,0 78.4805312924518,17.3889275652553,0 78.4805198312275,17.3889658913339,0 78.480504419768,17.3890263174833,0 78.4804913682897,17.3890749454218,0 78.4804844428141,17.3891410625096,0 78.4804798155835,17.3893003277057,0 78.4804696352902,17.3894597945559,0 78.4804693337866,17.3894681000113,0 78.4804635370906,17.3895135477716,0 78.4804509459922,17.3895606263864,0 78.4804353507708,17.3896072150262,0 78.480424429846,17.3896353472498,0 78.4803974796989,17.3896937147748,0 78.4803776221723,17.3897355527816,0 78.4803579722867,17.3898172247213,0 78.4802506786791,17.3898006961715,0 78.4802068965271,17.3897980115226,0 78.4801500614473,17.3897980705121,0 78.4800153479527,17.3897986271987,0 78.4797962243191,17.3898014594538,0 78.4795714286798,17.389799433163,0 78.4790742107142,17.3897974870335,0 78.4788702405715,17.3897996971497,0 78.4785097307991,17.3898026378589,0 78.4780117631032,17.3898004993358,0 78.4777093390808,17.3898001088168,0 78.4775648805326,17.3897979215865,0 78.477332174102,17.3897966053303,0 78.477028651399,17.3898008961288,0 78.4767997427056,17.3898107369477,0 78.4763407137702,17.3898250711645,0 78.4762492129995,17.3898151310759,0 78.4763736874535,17.3885772111978,0 78.4763727367961,17.3885723055813,0 78.4761659983403,17.3885771765195,0 78.4760900816766,17.38857748092,0 78.4760564719149,17.3885794940614,0 78.4759451399129,17.3885831437169,0 78.4758320400771,17.3885854164855,0 78.4757198867305,17.3885872491244,0 78.4756052842862,17.3885824575714,0 78.4751749722349,17.3885722261335,0 78.4750356405875,17.3885666698701,0 78.4748952509872,17.3885628162138,0 78.4747549301895,17.3885607692773,0 78.4746159961747,17.3885605468429,0 78.4745726549217,17.3885588241269,0 78.4745266440185,17.3885596866786,0 78.4744799374923,17.388563250439,0 78.4744110647512,17.3885712298714,0 78.4743868415106,17.388574716543,0 78.4743429792028,17.3885835549491,0 78.4742095866956,17.3886181745639,0 78.4740282932214,17.3886679941675,0 78.4739613540112,17.3886976422607,0 78.4738542789358,17.3887631558411,0 78.4737273100876,17.3888437388201,0 78.4735902216725,17.3889351224208,0 78.4735770355743,17.3889431742887,0 78.4735113829718,17.3889906642234,0 78.4733801192769,17.3890825728894,0 78.4732876787663,17.3891421871018,0 78.4732162041664,17.3891864201916,0 78.4730979526163,17.3892580127984,0 78.472990474412,17.3893234882069,0 78.4727632785407,17.3894689149347,0 78.4725858489034,17.3895866113423,0 78.4725833774174,17.3895884769407,0 78.4723227167551,17.3897647513645,0 78.4721804891153,17.3898598024392,0 78.4719908909574,17.3899885656136,0 78.4718854032667,17.3900593345352,0 78.4717617854544,17.3901414006137,0 78.4716471622523,17.3902129295902,0 78.4715350698468,17.3902874624296,0 78.4713736485078,17.3903953621367,0 78.4712826529435,17.3904503458568,0 78.4711109460423,17.3905631750171,0 78.4705930961418,17.3908915739966,0</coordinates></LinearRing></outerBoundaryIs></Polygon></MultiGeometry>
  </Placemark>
</Folder>
</Document></kml>
